{"type":"FeatureCollection","crs":{"type":"name","properties":{"name":"EPSG:4326"}},"features":[{"type":"Feature","id":5123,"geometry":{"type":"Polygon","coordinates":[[[-71.576619,41.224346],[-71.574286,41.224452],[-71.573581,41.224004],[-71.573894,41.222934],[-71.574035,41.221837],[-71.574097,41.221147],[-71.576624,41.221261],[-71.576638,41.221486],[-71.576624,41.221576],[-71.576613,41.221613],[-71.57662,41.221667],[-71.576621,41.221761],[-71.576624,41.221838],[-71.576615,41.222144],[-71.576625,41.222238],[-71.576636,41.222301],[-71.576637,41.222396],[-71.576639,41.222463],[-71.576635,41.22258],[-71.576646,41.222661],[-71.576651,41.222738],[-71.576656,41.222877],[-71.576676,41.222976],[-71.576685,41.223012],[-71.576674,41.223057],[-71.576652,41.223102],[-71.576654,41.223161],[-71.576663,41.223309],[-71.576656,41.223345],[-71.57664,41.223476],[-71.576615,41.223563],[-71.5766,41.223603],[-71.576626,41.223724],[-71.576651,41.223809],[-71.576651,41.223945],[-71.57666,41.224084],[-71.576641,41.224201],[-71.576619,41.224346]]]},"properties":{"OBJECTID":5123,"ORGNAME":"BLOCK ISLAND NATIONAL WILDLIFE REFUGE","LIT":"BLI","RSL_TYPE":"NWR","INTTYPE1":"E","INTTYPE2":"C","SUM_GISACRES":20.14295923}},{"type":"Feature","id":5124,"geometry":{"type":"Polygon","coordinates":[[[-71.570501,41.211162],[-71.570492,41.210563],[-71.570486,41.2105],[-71.5705,41.210509],[-71.570512,41.210513],[-71.570524,41.210518],[-71.570536,41.210522],[-71.570548,41.210526],[-71.570538,41.211139],[-71.570674,41.211154],[-71.570675,41.211185],[-71.570501,41.211162]]]},"properties":{"OBJECTID":5124,"ORGNAME":"BLOCK ISLAND NATIONAL WILDLIFE REFUGE","LIT":"BLI","RSL_TYPE":"NWR","INTTYPE1":"E","INTTYPE2":"R","SUM_GISACRES":0.07953024}},{"type":"Feature","id":5125,"geometry":{"type":"MultiPolygon","coordinates":[[[[-71.573691,41.212982],[-71.573605,41.212381],[-71.573531,41.211815],[-71.573501,41.211514],[-71.573091,41.21146],[-71.572367,41.211381],[-71.570932,41.211206],[-71.570731,41.211188],[-71.570675,41.211185],[-71.570674,41.211154],[-71.570661,41.21055],[-71.570649,41.210551],[-71.570637,41.210546],[-71.570626,41.210547],[-71.570613,41.210543],[-71.570602,41.210538],[-71.57059,41.210539],[-71.570578,41.210534],[-71.570567,41.21053],[-71.570548,41.210526],[-71.570536,41.210522],[-71.570524,41.210518],[-71.570512,41.210513],[-71.5705,41.210509],[-71.570486,41.2105],[-71.570475,41.210496],[-71.570464,41.210492],[-71.570454,41.210488],[-71.570443,41.210483],[-71.570433,41.210479],[-71.570423,41.21047],[-71.570413,41.210466],[-71.570403,41.210462],[-71.570393,41.210453],[-71.570383,41.210449],[-71.570374,41.210444],[-71.570364,41.210436],[-71.570355,41.210431],[-71.570346,41.210427],[-71.570337,41.210418],[-71.570328,41.210414],[-71.570319,41.210405],[-71.570311,41.210401],[-71.570302,41.210392],[-71.570294,41.210383],[-71.570286,41.210379],[-71.570278,41.21037],[-71.57027,41.210361],[-71.570263,41.210357],[-71.570255,41.210348],[-71.570248,41.210339],[-71.570241,41.210335],[-71.570234,41.210326],[-71.570228,41.210317],[-71.570221,41.210308],[-71.570215,41.210299],[-71.570209,41.210295],[-71.570203,41.210286],[-71.570197,41.210277],[-71.570192,41.210268],[-71.570186,41.210259],[-71.570181,41.21025],[-71.570176,41.210242],[-71.570171,41.210233],[-71.570167,41.210224],[-71.570162,41.210215],[-71.570158,41.210206],[-71.570154,41.210197],[-71.57015,41.210188],[-71.570147,41.210179],[-71.570143,41.21017],[-71.570139,41.210157],[-71.570134,41.210143],[-71.570128,41.21013],[-71.570122,41.210117],[-71.570115,41.210103],[-71.570108,41.210085],[-71.570099,41.210072],[-71.570091,41.210059],[-71.570081,41.21005],[-71.570071,41.210037],[-71.57006,41.210023],[-71.57005,41.21001],[-71.570038,41.209997],[-71.570026,41.209988],[-71.570013,41.209975],[-71.569999,41.209966],[-71.569985,41.209953],[-71.569971,41.209944],[-71.569957,41.209936],[-71.569941,41.209923],[-71.569926,41.209914],[-71.56991,41.209905],[-71.569893,41.209897],[-71.569877,41.209892],[-71.569859,41.209884],[-71.569842,41.209875],[-71.569824,41.209871],[-71.569806,41.209863],[-71.569788,41.209858],[-71.569769,41.209854],[-71.569751,41.20985],[-71.569732,41.209846],[-71.569712,41.209842],[-71.569693,41.209838],[-71.569674,41.209838],[-71.569654,41.209834],[-71.569633,41.209835],[-71.569573,41.209832],[-71.569134,41.20981],[-71.568992,41.20984],[-71.568705,41.209797],[-71.568693,41.209797],[-71.568673,41.209802],[-71.568675,41.209789],[-71.568691,41.209748],[-71.568708,41.209711],[-71.56872,41.209684],[-71.568731,41.209661],[-71.568998,41.2097],[-71.569174,41.209665],[-71.569251,41.209681],[-71.569597,41.209705],[-71.570248,41.209749],[-71.570492,41.209766],[-71.570854,41.209785],[-71.571193,41.209814],[-71.571943,41.209878],[-71.572672,41.209925],[-71.573142,41.209946],[-71.57314,41.209919],[-71.573823,41.2098],[-71.574059,41.209763],[-71.574094,41.209744],[-71.574218,41.209597],[-71.5753,41.209465],[-71.575363,41.209518],[-71.575814,41.209499],[-71.577616,41.209472],[-71.577879,41.209466],[-71.577787,41.209617],[-71.57774,41.209775],[-71.577701,41.209938],[-71.577672,41.210096],[-71.577659,41.210322],[-71.577661,41.21047],[-71.577624,41.210606],[-71.577532,41.210726],[-71.577383,41.210832],[-71.577256,41.210916],[-71.577124,41.211018],[-71.577058,41.211146],[-71.577001,41.211273],[-71.576973,41.211346],[-71.576933,41.211342],[-71.576919,41.211397],[-71.576877,41.211555],[-71.576847,41.211714],[-71.576841,41.211889],[-71.576889,41.211956],[-71.576878,41.2121],[-71.576914,41.212131],[-71.57685,41.21238],[-71.57688,41.212429],[-71.576831,41.212633],[-71.576803,41.212723],[-71.575898,41.212581],[-71.575747,41.21258],[-71.575547,41.212621],[-71.57548,41.212636],[-71.574901,41.212775],[-71.574564,41.212832],[-71.574041,41.212911],[-71.573691,41.212982]]],[[[-71.585361,41.196644],[-71.585644,41.196552],[-71.58588,41.19647],[-71.586119,41.196334],[-71.586465,41.196146],[-71.586742,41.196],[-71.58682,41.195985],[-71.586995,41.196593],[-71.587785,41.196468],[-71.587856,41.196488],[-71.587923,41.196536],[-71.587935,41.196635],[-71.587891,41.196758],[-71.587893,41.19692],[-71.587953,41.197049],[-71.588059,41.197222],[-71.588154,41.197409],[-71.588212,41.19753],[-71.588221,41.197611],[-71.588205,41.197706],[-71.588177,41.197814],[-71.588182,41.197958],[-71.588226,41.19811],[-71.588376,41.198238],[-71.588407,41.198322],[-71.588338,41.198392],[-71.588156,41.198481],[-71.588,41.198593],[-71.587858,41.198758],[-71.58775,41.198945],[-71.587584,41.199233],[-71.587537,41.19931],[-71.587342,41.199436],[-71.587021,41.199628],[-71.586639,41.199952],[-71.586253,41.20024],[-71.585676,41.19973],[-71.585258,41.199524],[-71.585101,41.198775],[-71.585148,41.198229],[-71.585072,41.198028],[-71.584686,41.197771],[-71.58488,41.197627],[-71.585151,41.197337],[-71.585179,41.197066],[-71.585383,41.196819],[-71.585361,41.196644]]],[[[-71.569194,41.203792],[-71.569579,41.202482],[-71.569594,41.202437],[-71.569604,41.202405],[-71.569615,41.202378],[-71.569627,41.202346],[-71.56964,41.202314],[-71.569653,41.202287],[-71.569667,41.202255],[-71.569682,41.202228],[-71.569849,41.2019],[-71.570185,41.201987],[-71.570203,41.201991],[-71.570216,41.201995],[-71.570229,41.201999],[-71.570242,41.202008],[-71.570254,41.202012],[-71.570266,41.202021],[-71.570277,41.202025],[-71.570288,41.202034],[-71.570298,41.202043],[-71.570308,41.202052],[-71.570317,41.20206],[-71.570325,41.202069],[-71.570333,41.202078],[-71.57034,41.202087],[-71.570347,41.202096],[-71.570352,41.202105],[-71.570358,41.202118],[-71.570362,41.202127],[-71.570365,41.202136],[-71.570369,41.202149],[-71.570384,41.202216],[-71.571755,41.201943],[-71.571873,41.202516],[-71.572208,41.202554],[-71.572772,41.202604],[-71.572991,41.202622],[-71.573001,41.203099],[-71.574096,41.203084],[-71.574082,41.202399],[-71.574546,41.202259],[-71.574709,41.20216],[-71.57481,41.202095],[-71.574824,41.202113],[-71.574846,41.202139],[-71.574879,41.202197],[-71.574943,41.202272],[-71.574991,41.20233],[-71.575001,41.202338],[-71.575012,41.202347],[-71.575023,41.20236],[-71.575036,41.202369],[-71.575039,41.202522],[-71.575064,41.203733],[-71.574886,41.203737],[-71.574866,41.203737],[-71.574717,41.203745],[-71.574298,41.203759],[-71.574091,41.203741],[-71.574002,41.203743],[-71.573892,41.203741],[-71.573534,41.20374],[-71.573523,41.2032],[-71.573151,41.203204],[-71.573161,41.203735],[-71.573016,41.203743],[-71.57197,41.203766],[-71.57111,41.203781],[-71.570615,41.203787],[-71.570065,41.203791],[-71.569889,41.203795],[-71.569194,41.203792]]],[[[-71.562211,41.221783],[-71.562272,41.221723],[-71.563003,41.221821],[-71.563734,41.221926],[-71.563699,41.222075],[-71.563644,41.222246],[-71.563928,41.222295],[-71.564162,41.222349],[-71.564683,41.222457],[-71.564984,41.222519],[-71.565271,41.222566],[-71.565391,41.222577],[-71.565546,41.223581],[-71.565091,41.223582],[-71.564851,41.223582],[-71.564675,41.223563],[-71.563667,41.223382],[-71.563408,41.223344],[-71.563156,41.2233],[-71.562572,41.223213],[-71.562082,41.223124],[-71.56212,41.222745],[-71.562182,41.222114],[-71.562204,41.221867],[-71.562211,41.221783]]],[[[-71.576021,41.22775],[-71.575959,41.227459],[-71.574362,41.227783],[-71.57428,41.227722],[-71.574169,41.227643],[-71.574069,41.227573],[-71.573992,41.227503],[-71.57397,41.227486],[-71.573885,41.227415],[-71.573843,41.227385],[-71.574286,41.224452],[-71.576619,41.224346],[-71.576662,41.224696],[-71.576664,41.224759],[-71.576667,41.224786],[-71.576692,41.224903],[-71.576706,41.224984],[-71.576711,41.22501],[-71.576723,41.225073],[-71.576738,41.225154],[-71.576751,41.225244],[-71.576753,41.225253],[-71.576753,41.225271],[-71.576754,41.22528],[-71.576755,41.225316],[-71.576753,41.225415],[-71.57675,41.225496],[-71.576749,41.225595],[-71.576749,41.225676],[-71.576758,41.225757],[-71.57677,41.225829],[-71.576785,41.225919],[-71.576794,41.225999],[-71.576795,41.226008],[-71.576799,41.226026],[-71.576809,41.226098],[-71.576813,41.226125],[-71.57682,41.226152],[-71.576832,41.226206],[-71.576832,41.226215],[-71.576835,41.22626],[-71.576845,41.226304],[-71.576876,41.226421],[-71.576906,41.226501],[-71.576943,41.226608],[-71.576956,41.226689],[-71.576971,41.226851],[-71.576996,41.227022],[-71.577003,41.227121],[-71.577008,41.227247],[-71.577015,41.227345],[-71.577023,41.227453],[-71.577051,41.227579],[-71.577065,41.227678],[-71.577084,41.227776],[-71.577095,41.227875],[-71.577105,41.227974],[-71.577109,41.228064],[-71.577112,41.228167],[-71.576137,41.228284],[-71.576055,41.227903],[-71.576021,41.22775]]]]},"properties":{"OBJECTID":5125,"ORGNAME":"BLOCK ISLAND NATIONAL WILDLIFE REFUGE","LIT":"BLI","RSL_TYPE":"NWR","INTTYPE1":"O","INTTYPE2":"N/A","SUM_GISACRES":108.75439167}}]}
